NORAD_CAT_ID,OBJECT_NAME,OBJECT_TYPE,EPOCH,MEAN_MOTION,ECCENTRICITY,INCLINATION,RA_OF_ASC_NODE,ARG_OF_PERICENTER,MEAN_ANOMALY,BSTAR,MEAN_MOTION_DOT,MEAN_MOTION_DDOT,TLE_LINE0,TLE_LINE1,TLE_LINE2,SEMIMAJOR_AXIS,PERIOD,APOGEE,PERIGEE,DECAYED
53151.0,STARLINK-4040,PAYLOAD,2023-04-20 09:23:23,15.08843403,0.0001204,53.2155,217.0501,101.5416,258.5712,-0.00011053,-2.047e-05,0.0,0 STARLINK-4040,1 53151U 22083V   23110.39123959 -.00002047  00000-0 -11053-3 0  9996,2 53151  53.2155 217.0501 0001204 101.5416 258.5712 15.08843403 42191,6917.87,95.437,540.568,538.902,0.0
53151.0,STARLINK-4040,PAYLOAD,2023-04-20 15:44:55,15.08849795,0.0001323,53.2173,215.8611,99.1009,261.0133,3.0103e-05,1.91e-06,0.0,0 STARLINK-4040,1 53151U 22083V   23110.65619754  .00000191  00000-0  30103-4 0  9992,2 53151  53.2173 215.8611 0001323  99.1009 261.0133 15.08849795 42232,6917.85,95.437,540.631,538.8,0.0
53151.0,STARLINK-4040,PAYLOAD,2023-04-20 23:41:51,15.08837036,0.0001176,53.2174,214.3753,101.2674,258.845,-0.00015485,-2.751e-05,0.0,0 STARLINK-4040,1 53151U 22083V   23110.98740146 -.00002751  00000-0 -15485-3 0  9999,2 53151  53.2174 214.3753 0001176 101.2674 258.8450 15.08837036 42289,6917.889,95.438,540.568,538.941,0.0
53151.0,STARLINK-4040,PAYLOAD,2023-04-21 17:11:06,15.08843131,0.00016,53.2179,211.104,102.8043,257.3128,7.4897e-06,-1.69e-06,0.0,0 STARLINK-4040,1 53151U 22083V   23111.71604357 -.00000169  00000-0  74897-5 0  9998,2 53151  53.2179 211.1040 0001600 102.8043 257.3128 15.08843131 42398,6917.871,95.437,540.843,538.629,0.0
53151.0,STARLINK-4040,PAYLOAD,2023-04-22 07:29:34,15.08835277,0.0001062,53.217,208.4261,90.996,269.1154,6.6379e-05,7.69e-06,0.0,0 STARLINK-4040,1 53151U 22083V   23112.31221007  .00000769  00000-0  66379-4 0  9992,2 53151  53.2170 208.4261 0001062  90.9960 269.1154 15.08835277 43113,6917.895,95.438,540.495,539.025,0.0
53151.0,STARLINK-4040,PAYLOAD,2023-04-22 18:37:15,15.0884961,0.0001411,53.216,206.3431,95.216,264.8993,0.0001383,1.914e-05,0.0,0 STARLINK-4040,1 53151U 22083V   23112.77587928  .00001914  00000-0  13830-3 0  9995,2 53151  53.2160 206.3431 0001411  95.2160 264.8993 15.08849610 43182,6917.851,95.437,540.692,538.74,0.0
53151.0,STARLINK-4040,PAYLOAD,2023-04-22 23:23:27,15.08820902,8.97e-05,53.2168,205.4531,61.9193,298.189,-0.0001302,-2.358e-05,0.0,0 STARLINK-4040,1 53151U 22083V   23112.97462266 -.00002358  00000-0 -13020-3 0  9990,2 53151  53.2168 205.4531 0000897  61.9193 298.1890 15.08820902 43217,6917.939,95.439,540.424,539.183,0.0
53151.0,STARLINK-4040,PAYLOAD,2023-04-23 05:45:00,15.08815647,9.14e-05,53.2183,204.2641,110.0675,250.0416,-2.9391e-05,-7.55e-06,0.0,0 STARLINK-4040,1 53151U 22083V   23113.23958772 -.00000755  00000-0 -29391-4 0  9990,2 53151  53.2183 204.2641 0000914 110.0675 250.0416 15.08815647 42629,6917.955,95.439,540.452,539.188,0.0
53151.0,STARLINK-4040,PAYLOAD,2023-04-23 18:28:04,15.08837751,0.0001561,53.2154,201.8841,90.5892,269.5279,5.1109e-05,5.25e-06,0.0,0 STARLINK-4040,1 53151U 22083V   23113.76949595  .00000525  00000-0  51109-4 0  9996,2 53151  53.2154 201.8841 0001561  90.5892 269.5279 15.08837751 42705,6917.887,95.438,540.832,538.672,0.0
53151.0,STARLINK-4040,PAYLOAD,2023-04-23 23:14:13,15.08845286,0.0001156,53.2178,200.9913,92.103,268.0094,6.2421e-05,7.06e-06,0.0,0 STARLINK-4040,1 53151U 22083V   23113.96820941  .00000706  00000-0  62421-4 0  9991,2 53151  53.2178 200.9913 0001156  92.1030 268.0094 15.08845286 43367,6917.864,95.437,540.529,538.93,0.0
53151.0,STARLINK-4040,PAYLOAD,2023-04-24 05:35:45,15.08857129,0.0001276,53.2184,199.8021,78.5495,281.564,0.00024993,3.694e-05,0.0,0 STARLINK-4040,1 53151U 22083V   23114.23316027  .00003694  00000-0  24993-3 0  9997,2 53151  53.2184 199.8021 0001276  78.5495 281.5640 15.08857129 43407,6917.828,95.436,540.576,538.81,0.0
53151.0,STARLINK-4040,PAYLOAD,2023-04-25 10:12:43,15.08806335,0.00014,53.2162,194.4515,98.605,261.5101,-0.00037226,-6.202e-05,0.0,0 STARLINK-4040,1 53151U 22083V   23115.42550543 -.00006202  00000-0 -37226-3 0  9995,2 53151  53.2162 194.4515 0001400  98.6050 261.5101 15.08806335 43583,6917.983,95.44,540.817,538.88,0.0
53151.0,STARLINK-4040,PAYLOAD,2023-04-25 16:34:16,15.08810933,0.0001407,53.2163,193.259,113.7796,246.3344,-0.0003869,-6.435e-05,0.0,0 STARLINK-4040,1 53151U 22083V   23115.69046588 -.00006435  00000-0 -38690-3 0  9997,2 53151  53.2163 193.2590 0001407 113.7796 246.3344 15.08810933 43621,6917.969,95.439,540.808,538.861,0.0
53151.0,STARLINK-4040,PAYLOAD,2023-04-26 10:03:31,15.08824509,0.000122,53.2153,189.9933,75.1959,284.9168,-0.0002115,-3.651e-05,0.0,0 STARLINK-4040,1 53151U 22083V   23116.41910907 -.00003651  00000-0 -21150-3 0  9993,2 53151  53.2153 189.9933 0001220  75.1959 284.9168 15.08824509 43107,6917.928,95.439,540.637,538.949,0.0
53151.0,STARLINK-4040,PAYLOAD,2023-04-26 16:25:02,15.08838735,0.0001087,53.2156,188.8023,101.711,258.4004,-9.808e-05,-1.848e-05,0.0,0 STARLINK-4040,1 53151U 22083V   23116.68406236 -.00001848  00000-0 -98080-4 0  9990,2 53151  53.2156 188.8023 0001087 101.7110 258.4004 15.08838735 43149,6917.884,95.438,540.501,538.997,0.0
53151.0,STARLINK-4040,PAYLOAD,2023-04-27 11:29:40,15.08860879,0.0001188,53.2157,185.2321,107.3817,252.7305,0.00098271,0.00015395,0.0,0 STARLINK-4040,1 53151U 22083V   23117.47894669  .00015395  00000-0  98271-3 0  9990,2 53151  53.2157 185.2321 0001188 107.3817 252.7305 15.08860879 43268,6917.817,95.436,540.503,538.86,0.0
53151.0,STARLINK-4040,PAYLOAD,2023-04-27 16:15:49,15.08877088,0.0001218,53.2159,184.3394,109.4699,250.6425,0.0011738,0.00018461,0.0,0 STARLINK-4040,1 53151U 22083V   23117.67766092  .00018461  00000-0  11738-2 0  9999,2 53151  53.2159 184.3394 0001218 109.4699 250.6425 15.08877088 43928,6917.767,95.435,540.475,538.789,0.0
53151.0,STARLINK-4040,PAYLOAD,2023-04-28 11:20:27,15.08863617,0.0001156,53.216,180.7723,104.0468,256.0653,0.00048052,7.373e-05,0.0,0 STARLINK-4040,1 53151U 22083V   23118.47253507  .00007373  00000-0  48052-3 0  9990,2 53151  53.2160 180.7723 0001156 104.0468 256.0653 15.08863617 44042,6917.808,95.436,540.473,538.874,0.0
53151.0,STARLINK-4040,PAYLOAD,2023-04-29 12:46:37,15.08844114,0.000128,53.2168,176.02,105.7114,254.402,0.00046268,7.084e-05,0.0,0 STARLINK-4040,1 53151U 22083V   23119.53237611  .00007084  00000-0  46268-3 0  9992,2 53151  53.2168 176.0200 0001280 105.7114 254.4020 15.08844114 44201,6917.868,95.437,540.618,538.847,0.0
53151.0,STARLINK-4040,PAYLOAD,2023-04-30 03:05:05,15.08842879,0.0001363,53.2157,173.3399,88.9239,271.1909,0.00014933,2.09e-05,0.0,0 STARLINK-4040,1 53151U 22083V   23120.12853639  .00002090  00000-0  14933-3 0  9999,2 53151  53.2157 173.3399 0001363  88.9239 271.1909 15.08842879 44297,6917.872,95.437,540.679,538.794,0.0
53151.0,STARLINK-4040,PAYLOAD,2023-04-30 11:02:01,15.08842497,0.0001295,53.2161,171.8524,90.0496,270.0644,6.3052e-05,7.16e-06,0.0,0 STARLINK-4040,1 53151U 22083V   23120.45973663  .00000716  00000-0  63052-4 0  9995,2 53151  53.2161 171.8524 0001295  90.0496 270.0644 15.08842497 43714,6917.873,95.437,540.634,538.842,0.0
53151.0,STARLINK-4040,PAYLOAD,2023-05-01 12:28:11,15.0883523,0.0001333,53.216,167.0923,99.3333,260.781,1.9699e-05,2.6e-07,0.0,0 STARLINK-4040,1 53151U 22083V   23121.51958329  .00000026  00000-0  19699-4 0  9997,2 53151  53.2160 167.0923 0001333  99.3333 260.7810 15.08835230 44504,6917.895,95.438,540.682,538.838,0.0
53151.0,STARLINK-4040,PAYLOAD,2023-05-02 02:46:39,15.08847115,0.0001215,53.2161,164.4151,102.5883,257.5245,0.00015964,2.254e-05,0.0,0 STARLINK-4040,1 53151U 22083V   23122.11573749  .00002254  00000-0  15964-3 0  9998,2 53151  53.2161 164.4151 0001215 102.5883 257.5245 15.08847115 44595,6917.859,95.437,540.564,538.883,0.0
53151.0,STARLINK-4040,PAYLOAD,2023-05-02 12:18:58,15.08853587,0.0001377,53.2162,162.6353,73.6816,286.4327,0.00030622,4.591e-05,0.0,0 STARLINK-4040,1 53151U 22083V   23122.51317511  .00004591  00000-0  30622-3 0  9999,2 53151  53.2162 162.6353 0001377  73.6816 286.4327 15.08853587 44023,6917.839,95.437,540.656,538.751,0.0
53151.0,STARLINK-4040,PAYLOAD,2023-05-03 02:37:27,15.08840712,0.0001204,53.2155,159.9572,72.6725,287.4399,0.00018628,2.678e-05,0.0,0 STARLINK-4040,1 53151U 22083V   23123.10934118  .00002678  00000-0  18628-3 0  9999,2 53151  53.2155 159.9572 0001204  72.6725 287.4399 15.08840712 44749,6917.878,95.438,540.576,538.91,0.0
53151.0,STARLINK-4040,PAYLOAD,2023-05-03 12:09:45,15.08842123,0.0001237,53.2164,158.174,80.6697,279.4435,7.6024e-05,9.22e-06,0.0,0 STARLINK-4040,1 53151U 22083V   23123.50677965  .00000922  00000-0  76024-4 0  9992,2 53151  53.2164 158.1740 0001237  80.6697 279.4435 15.08842123 44177,6917.874,95.437,540.595,538.883,0.0
53151.0,STARLINK-4040,PAYLOAD,2023-05-04 12:00:32,15.08845448,0.0001267,53.2163,153.7122,86.5535,273.5602,6.4683e-05,7.42e-06,0.0,0 STARLINK-4040,1 53151U 22083V   23124.50037750  .00000742  00000-0  64683-4 0  9993,2 53151  53.2163 153.7122 0001267  86.5535 273.5602 15.08845448 44950,6917.864,95.437,540.605,538.852,0.0
53151.0,STARLINK-4040,PAYLOAD,2023-05-05 02:19:01,15.08837929,0.0001267,53.2157,151.0361,84.1863,275.9273,0.00010345,1.359e-05,0.0,0 STARLINK-4040,1 53151U 22083V   23125.09654174  .00001359  00000-0  10345-3 0  9993,2 53151  53.2157 151.0361 0001267  84.1863 275.9273 15.08837929 45043,6917.887,95.438,540.628,538.875,0.0
53151.0,STARLINK-4040,PAYLOAD,2023-05-05 18:12:52,15.08838614,0.0001279,53.2155,148.0623,83.4005,276.7133,6.5858e-05,7.6e-06,0.0,0 STARLINK-4040,1 53151U 22083V   23125.75894191  .00000760  00000-0  65858-4 0  9996,2 53151  53.2155 148.0623 0001279  83.4005 276.7133 15.08838614 44518,6917.885,95.438,540.634,538.865,0.0
53151.0,STARLINK-4040,PAYLOAD,2023-05-06 05:20:34,15.08840758,0.000123,53.2163,145.9811,86.8066,273.3067,9.7739e-05,1.268e-05,0.0,0 STARLINK-4040,1 53151U 22083V   23126.22262385  .00001268  00000-0  97739-4 0  9990,2 53151  53.2163 145.9811 0001230  86.8066 273.3067 15.08840758 45212,6917.878,95.438,540.594,538.892,0.0
